{"RECORDS":[{"CCSDS_OMM_VERS":61357.34,"CREATION_DATE":"1993-10-07T19:51:18.345Z","ORIGINATOR":"Schmitt, Roberts and Friesen","OBJECT_NAME":"/Q:=,:w<#G","OBJECT_ID":"\\j5au#|!QN","CENTER_NAME":"sPea,]`eA?","REF_FRAME":10,"REF_FRAME_EPOCH":"2044-08-24T08:12:32.893Z","TIME_SYSTEM":6,"MEAN_ELEMENT_THEORY":2,"COMMENT":"\\Jp;pdN1T$","EPOCH":"2041-09-21T17:53:03.830Z","SEMI_MAJOR_AXIS":78574.82,"MEAN_MOTION":72708.15,"ECCENTRICITY":63639.64,"INCLINATION":64737.78,"RA_OF_ASC_NODE":97214.3,"ARG_OF_PERICENTER":26058.31,"MEAN_ANOMALY":91268.48,"GM":12139.05,"MASS":60504.47,"SOLAR_RAD_AREA":45232.43,"SOLAR_RAD_COEFF":66895.24,"DRAG_AREA":31174.78,"DRAG_COEFF":50665.08,"EPHEMERIS_TYPE":3,"CLASSIFICATION_TYPE":"{;p,C2[jPp","NORAD_CAT_ID":3294398192,"ELEMENT_SET_NO":2679649235,"REV_AT_EPOCH":80420.75,"BSTAR":7705.02,"MEAN_MOTION_DOT":73320.06,"MEAN_MOTION_DDOT":83878.95,"COV_REF_FRAME":2,"CX_X":53855.26,"CY_X":81741.01,"CY_Y":34550.16,"CZ_X":90419.21,"CZ_Y":60054.36,"CZ_Z":64553.31,"CX_DOT_X":24985.17,"CX_DOT_Y":49465.37,"CX_DOT_Z":12458.76,"CX_DOT_X_DOT":76717.5,"CY_DOT_X":24737.4,"CY_DOT_Y":17429.35,"CY_DOT_Z":49400.63,"CY_DOT_X_DOT":55806.2,"CY_DOT_Y_DOT":25820.83,"CZ_DOT_X":73020.56,"CZ_DOT_Y":67638.17,"CZ_DOT_Z":81613.27,"CZ_DOT_X_DOT":11020.61,"CZ_DOT_Y_DOT":85100.42,"CZ_DOT_Z_DOT":93053.06,"USER_DEFINED_BIP_0044_TYPE":952879614,"USER_DEFINED_OBJECT_DESIGNATOR":">RkUyEq\\\"E","USER_DEFINED_EARTH_MODEL":".}>-H<(8a8","USER_DEFINED_EPOCH_TIMESTAMP":98428.5,"USER_DEFINED_MICROSECONDS":46370.87}]}